0 FENGYUN 1C DEB
1 30947U 99025BAM 13281.48022028  .00000341  00000-0  13521-3 0  9396
2 30947 098.7676 002.6378 0104305 000.4009 131.0963 14.32377505347172
0 FENGYUN 1C DEB
1 30947U 99025BAM 13283.50472001  .00000370  00000-0  14512-3 0  9406
2 30947 098.7677 004.6848 0104209 354.4491 130.5645 14.32380945347462
0 FENGYUN 1C DEB
1 30947U 99025BAM 13285.53191642  .00000357  00000-0  14067-3 0  9411
2 30947 098.7678 006.7347 0104097 348.4502 143.9969 14.32382192347756
0 FENGYUN 1C DEB
1 30947U 99025BAM 13287.96173887  .00000646  00000-0  24140-3 0  9426
2 30947 098.7675 009.1918 0103988 341.2818 073.6015 14.32384986348107
0 FENGYUN 1C DEB
1 30947U 99025BAM 13290.19192097  .00000512  00000-0  19491-3 0  9435
2 30947 098.7670 011.4472 0103900 334.6772 053.7910 14.32387622348420
0 FENGYUN 1C DEB
1 30947U 99025BAM 13292.44745670  .00000557  00000-0  21046-3 0  9445
2 30947 098.7666 013.7280 0103813 327.9995 164.7414 14.32390018348742
0 FENGYUN 1C DEB
1 30947U 99025BAM 13294.47297034  .00000579  00000-0  21835-3 0  9457
2 30947 098.7665 015.7760 0103759 321.9974 169.5752 14.32392943349036
